{
"type": "FeatureCollection",
"name": "country_borders",
"crs": { "type": "name", "properties": { "name": "urn:ogc:def:crs:EPSG::3857" } },
"features": [
{ "type": "Feature", "properties": { }, "geometry": { "type": "Polygon", "coordinates": [ [ [ 312954.824402843194548, 2269523.018878855276853 ], [ 300939.334862794028595, 2273582.257153035607189 ], [ 287017.272396416752599, 2273609.146153612993658 ], [ 279824.362274313811213, 2275928.755922767799348 ], [ 274729.489370651659556, 2280286.74273043917492 ], [ 269264.029540679359343, 2279687.295085073448718 ], [ 258021.549223883397644, 2297722.142008297611028 ], [ 246086.650542390736518, 2306916.619766072835773 ], [ 241906.261578305042349, 2307177.168382248375565 ], [ 233254.17390108530526, 2298177.820131857413799 ], [ 227528.651257833465934, 2303481.091090404894203 ], [ 223590.543042890960351, 2301737.316013984382153 ], [ 218051.724670371360844, 2303917.522744238376617 ], [ 213385.443272169854026, 2301321.491275765467435 ], [ 208836.139623159979237, 2308401.18399835890159 ], [ 200203.09470331002376, 2308577.990576566662639 ], [ 196851.822212213941384, 2313647.695253456011415 ], [ 186019.766282614262309, 2321720.318236250896007 ], [ 184476.773499894916313, 2336487.941863708663732 ], [ 181907.852275019744411, 2341744.342616049107164 ], [ 161993.79034571282682, 2350288.677095573861152 ], [ 152711.475275039614644, 2352057.029131992720068 ], [ 145377.349031757737976, 2361398.606255777645856 ], [ 136665.717449466435937, 2359259.524238806217909 ], [ 130485.027330796743627, 2360639.84116821270436 ], [ 128864.774702643946512, 2365563.984203388448805 ], [ 132552.794775970542105, 2392319.809405434411019 ], [ 129873.557494188338751, 2406060.92774531012401 ], [ 528.767469956239665, 2491664.177958444226533 ], [ -1450.715604017941132, 2500881.433599676005542 ], [ -27653.262245116096892, 2519334.173105273861438 ], [ -236324.819306699268054, 2667019.269129569176584 ], [ -619994.219007287174463, 2933202.627113406080753 ], [ -698706.448732019402087, 2986594.227669021580368 ], [ -779236.435552902403288, 3041421.650582996662706 ], [ -965570.588894253829494, 3160761.382384493947029 ], [ -964885.097496198839508, 3339229.967420252971351 ], [ -941896.130409619072452, 3349706.273802085313946 ], [ -910338.784785923548043, 3377640.239159001968801 ], [ -907345.956491093034856, 3377727.161837539169937 ], [ -886489.317144954809919, 3391589.437069828622043 ], [ -883023.269583429791965, 3396601.759693276602775 ], [ -866653.749037641100585, 3408189.134596196003258 ], [ -851594.115255199722014, 3413671.871578553225845 ], [ -847296.602490757475607, 3422864.355727389454842 ], [ -834213.661893223063089, 3422090.819474787451327 ], [ -822626.763969959225506, 3423987.100511515978724 ], [ -816447.307939174002968, 3426827.044726241379976 ], [ -805803.929418257903308, 3437512.982571450527757 ], [ -795786.538465354708023, 3442277.534268672112375 ], [ -781626.366613803198561, 3438551.617704713717103 ], [ -769690.671664004097693, 3439044.620597925037146 ], [ -754311.647568316315301, 3434525.602508377749473 ], [ -745119.033298040973023, 3441321.555850252509117 ], [ -736466.653741102549247, 3443140.732683342881501 ], [ -726518.082612476893701, 3442043.046943827066571 ], [ -717632.012608856428415, 3447703.403067205101252 ], [ -711298.585469655925408, 3445878.825162765569985 ], [ -709404.150375341530889, 3448027.33824747800827 ], [ -695336.499158217338845, 3447740.995652477256954 ], [ -686193.834500070777722, 3449903.002389594912529 ], [ -674773.240103691932745, 3447376.546678532380611 ], [ -645511.765357924625278, 3454049.570140223484486 ], [ -636981.924070055480115, 3450402.297701720148325 ], [ -639876.764162366394885, 3441709.013754067476839 ], [ -633144.944380485103466, 3444430.818253775127232 ], [ -628919.515995701425709, 3439953.590047074016184 ], [ -618624.987712062778883, 3436646.622683004941791 ], [ -618186.748814248014241, 3440745.514011018443853 ], [ -593729.978359168278985, 3473749.875724901910871 ], [ -592202.432046357775107, 3477347.371537022758275 ], [ -592944.163386989850551, 3482518.90974197210744 ], [ -588318.18376328330487, 3490330.156017714180052 ], [ -549417.681436588405631, 3521555.482464122120291 ], [ -512778.759577132819686, 3539867.21919538686052 ], [ -480918.585420078597963, 3571651.995227251667529 ], [ -461472.049878689984325, 3578947.896144154015929 ], [ -444699.987812791659962, 3579925.608006466180086 ], [ -427803.688965025183279, 3584453.576522625982761 ], [ -404175.357937788998242, 3595337.367119433358312 ], [ -402597.729320015234407, 3597656.056592286098748 ], [ -403170.303681273129769, 3601194.197217528242618 ], [ -407113.64502547797747, 3602691.575960899237543 ], [ -407789.064347320003435, 3606378.958628787659109 ], [ -404523.846498018538114, 3616437.659894411452115 ], [ -402379.538999251497444, 3615269.24828989431262 ], [ -397653.421482317498885, 3624152.904517384711653 ], [ -396154.220785405894276, 3623496.338495871983469 ], [ -394024.971585475490429, 3627091.231258742045611 ], [ -394163.394477973983157, 3637462.762245690915734 ], [ -395613.667475695721805, 3637925.041443679016083 ], [ -395132.532280015060678, 3640722.813458800781518 ], [ -397699.372164373868145, 3638405.387559517752379 ], [ -399725.143552400229964, 3640533.755604961421341 ], [ -402615.498359788733069, 3648223.570200727786869 ], [ -404827.719987453892827, 3647339.549632435198873 ], [ -405004.639942857204005, 3652347.459698089864105 ], [ -406227.138679557887372, 3650326.796436679549515 ], [ -404829.96262991509866, 3645433.335900134872645 ], [ -407862.926944531674962, 3645767.466252034995705 ], [ -406883.232492526818532, 3643482.047191098798066 ], [ -409101.91009406914236, 3643606.379804474301636 ], [ -408558.172156355984043, 3652107.860689101275057 ], [ -411853.510388191090897, 3655423.337120088282973 ], [ -415527.995013308362104, 3651448.941050395835191 ], [ -415157.023255513166077, 3647910.826213541440666 ], [ -417954.698018965951633, 3649179.708083661738783 ], [ -420197.076541976479348, 3647522.263511281460524 ], [ -418562.677655573526863, 3656222.316188109107316 ], [ -421856.888109639985487, 3663407.266889162827283 ], [ -417926.989595832885243, 3668482.518233191687614 ], [ -421278.660388056421652, 3670509.454331821762025 ], [ -418734.833470711251721, 3673097.864573351573199 ], [ -417249.380842240527272, 3679663.218120535369962 ], [ -414272.476911875768565, 3677203.067131238989532 ], [ -405937.098529283714015, 3684158.154284754302353 ], [ -407729.507195229991339, 3684724.179556129965931 ], [ -407633.88119229307631, 3715347.759466206189245 ], [ -336065.88695144810481, 3731976.126472431235015 ], [ -315213.273118835408241, 3736825.390800416935235 ], [ -317524.033646570693236, 3741674.376518093515188 ], [ -317501.049399985640775, 3747689.46042187185958 ], [ -327106.702173066616524, 3767121.598648277577013 ], [ -324514.571502278733533, 3778916.245124245528132 ], [ -289315.346398362016771, 3778087.978880011476576 ], [ -283377.224344446323812, 3782336.205742565914989 ], [ -274144.958405524608679, 3784249.201708059757948 ], [ -257636.741900522669312, 3783631.632833219133317 ], [ -253197.404097290971549, 3785372.113046013284475 ], [ -241621.400901277811499, 3781997.175049896817654 ], [ -224182.319570995256072, 3787195.531999364029616 ], [ -219024.213411703327438, 3783925.666232894640416 ], [ -214327.102303175895941, 3782910.072630850132555 ], [ -213857.406589312071446, 3783296.730979529209435 ], [ -212215.465627799538197, 3784648.491725314408541 ], [ -175603.715074950770941, 3775359.166421498637646 ], [ -167395.565964770707069, 3776898.825232092291117 ], [ -138686.945889057504246, 3773307.513984292279929 ], [ -137466.091715252230642, 3773864.897613613400608 ], [ -128940.887562367905048, 3777757.819519352633506 ], [ -128852.472897026847932, 3777798.199524865951389 ], [ -129261.052667861789814, 3778637.338650556281209 ], [ -132568.374161318875849, 3785432.061549820937216 ], [ -136263.56743062872556, 3785224.160731858573854 ], [ -144551.975008706242079, 3784757.847306900657713 ], [ -138388.489873954560608, 3790213.85142599279061 ], [ -137564.396581677341601, 3802148.563596211839467 ], [ -139000.138712303189095, 3806424.190328947734088 ], [ -137376.299161176109919, 3807716.195547953713685 ], [ -136094.868206343933707, 3808735.862775985617191 ], [ -133351.953281529131345, 3816478.544440085068345 ], [ -124831.115736729043419, 3817823.555935226846486 ], [ -112655.649790969066089, 3829668.546411068178713 ], [ -110904.588245583843673, 3831373.051351252011955 ], [ -141384.881171728746267, 3854962.560988194309175 ], [ -147328.896928245434538, 3857744.859728798735887 ], [ -153756.599093574128347, 3860754.302769924979657 ], [ -161619.720266936696135, 3873493.861952037084848 ], [ -171573.704605342965806, 3889640.784223140217364 ], [ -165296.639637531334301, 3891983.874307832214981 ], [ -162606.387960058316821, 3900859.801322355866432 ], [ -163670.269224125775509, 3904481.885967899579555 ], [ -175370.6086103177513, 3915241.01490067737177 ], [ -178433.73616547419806, 3922694.190635750535876 ], [ -185813.26695738255512, 3932470.966581812128425 ], [ -185163.273452513938537, 3945844.935838889330626 ], [ -180873.351341503672302, 3954861.269699977710843 ], [ -180568.797202027431922, 3958742.889758022967726 ], [ -180410.270386127725942, 3960763.87009748397395 ], [ -176802.177261918026488, 3965904.820460739545524 ], [ -178402.789903633820359, 3969631.581293168943375 ], [ -177562.486935011955211, 3975916.73649859894067 ], [ -181482.498719572206028, 3979371.577914986293763 ], [ -183990.296749762666877, 3986236.912303161807358 ], [ -189945.006632316624746, 3985685.269022816326469 ], [ -193365.178986399172572, 3988625.460608398076147 ], [ -192419.85453850007616, 3993314.174219394568354 ], [ -185932.487349035422085, 3998331.236544569954276 ], [ -189127.249868090351811, 4011405.41752201737836 ], [ -184828.378176953905495, 4035271.836142342537642 ], [ -183413.781121938925935, 4043136.312600510194898 ], [ -190496.481274626625236, 4060670.865641365293413 ], [ -189787.834977221180452, 4070443.978238212876022 ], [ -191419.530491394543787, 4072630.917990695219487 ], [ -198176.343147142615635, 4081691.489489246625453 ], [ -190074.567866625875467, 4092255.32449497980997 ], [ -187737.408771011221688, 4095304.566555303055793 ], [ -189803.800248690065928, 4096210.238160983193666 ], [ -194175.703323310532141, 4098126.624641416594386 ], [ -201928.992422494658967, 4110440.259448646567762 ], [ -205564.614856778731337, 4112051.70175236929208 ], [ -197728.480456709221471, 4122799.131226939149201 ], [ -196869.94413474315661, 4126677.960066311061382 ], [ -193598.876891477644676, 4129275.350423117633909 ], [ -200650.287437500839587, 4134478.757956329267472 ], [ -200957.809458775096573, 4134705.741045496426523 ], [ -210003.904347337200306, 4138058.038885056506842 ], [ -210773.966275737766409, 4142581.808033552020788 ], [ -211049.12515467821504, 4142744.668400213588029 ], [ -219262.996725085627986, 4147607.369401673786342 ], [ -219609.315111848060042, 4155123.077731731813401 ], [ -227357.481955993192969, 4153948.328627263195813 ], [ -231547.252614263707073, 4158223.508959736675024 ], [ -236614.696039961709175, 4163396.448636804707348 ], [ -241470.013184288371122, 4165292.842699549160898 ], [ -246610.748270998388762, 4170307.040254916530102 ], [ -246147.505123124690726, 4175075.568933552131057 ], [ -239963.5602451931627, 4177610.892417978495359 ], [ -230838.515570003626635, 4173662.349419320002198 ], [ -218440.094996631407412, 4173821.442956109065562 ], [ -215163.841662838298362, 4175295.516368955839425 ], [ -202739.682204283832107, 4180887.256143106613308 ], [ -200963.814922666177154, 4181686.750871401745826 ], [ -197350.385809983941726, 4180244.629793510306627 ], [ -195277.867701248876983, 4182389.76915252674371 ], [ -189791.975728324672673, 4188069.892739968840033 ], [ -189391.458027278276859, 4188072.689784560352564 ], [ -184652.613544891617494, 4188105.783904431853443 ], [ -182197.931053140957374, 4192707.317193748429418 ], [ -175857.531128262693528, 4196526.365633031353354 ], [ -175760.46872534303111, 4196584.840024312026799 ], [ -172917.065584878990194, 4200714.607468438334763 ], [ -163369.158720661478583, 4205611.560644567012787 ], [ -163033.306556210533017, 4205783.85285775270313 ], [ -153597.659350999834714, 4205902.040417974814773 ], [ -150319.022120099834865, 4209116.175153056159616 ], [ -148033.235825805400964, 4211357.546133801341057 ], [ -141805.183382630872075, 4214111.914875545538962 ], [ -139900.994231843127636, 4220427.206918803043664 ], [ -133333.298695218923967, 4242237.007753758691251 ], [ -128886.354765164156561, 4242070.356460174545646 ], [ -124049.673839423412574, 4248001.998945580795407 ], [ -123483.55089824841707, 4248258.788589866831899 ], [ -117709.322182615782367, 4250878.284776422195137 ], [ -115730.179968917189399, 4255456.412046222016215 ], [ -110847.969037500748527, 4256431.271390934474766 ], [ -105098.05585139807954, 4262541.447434874251485 ], [ -104733.122839170857333, 4262929.360777891241014 ], [ -99739.146805015101563, 4260276.639238295145333 ], [ -95835.936137253724155, 4261710.933506103232503 ], [ -91857.798546615100349, 4268650.79345618467778 ], [ -88426.727903051258181, 4269128.289069831371307 ], [ -83775.405329815286677, 4265964.966766037978232 ], [ -81711.625637029457721, 4264561.702450854703784 ], [ -78283.69620685816335, 4265208.061407738365233 ], [ -76870.08405703290191, 4261819.089459449984133 ], [ -72001.488202577966149, 4261476.98485647700727 ], [ -69897.738863761129323, 4261329.162729097530246 ], [ -69493.375214221057831, 4261300.749927369877696 ], [ -62312.921075206664682, 4269126.06147812306881 ], [ -60638.0162271557856, 4268895.680330825969577 ], [ -59184.844274469163793, 4268695.802217313088477 ], [ -56575.064900295707048, 4271182.972897472791374 ], [ -53768.316151196449937, 4284029.557042528875172 ], [ -51588.435766717258957, 4284099.615553398616612 ], [ -47029.357116415914788, 4284246.139849786646664 ], [ -42255.075329373350542, 4287998.631398323923349 ], [ -37904.56569306638994, 4288069.215864506550133 ], [ -33756.322030974035442, 4284349.716690359637141 ], [ -32856.176914457108069, 4283542.774539562873542 ], [ -33493.523969449801371, 4282009.387003312818706 ], [ -34273.72354034872842, 4280132.605850812979043 ], [ -33107.067177487755544, 4278568.736769963987172 ], [ -31011.748761791339348, 4275760.586643861606717 ], [ -10805.295837202893381, 4272031.421593386679888 ], [ -5534.263588096244348, 4275663.808519400656223 ], [ 3116.200792181608449, 4281627.663463870063424 ], [ 9431.321083456099586, 4294721.494330036453903 ], [ 14961.111135041455782, 4306199.988645166158676 ], [ 23214.304897924670513, 4315597.118567625060678 ], [ 26139.537172745982389, 4316789.589928654022515 ], [ 32463.06415525572811, 4319367.825835837982595 ], [ 32811.325796133220138, 4319664.585019328631461 ], [ 36712.696736912294, 4322989.560891814529896 ], [ 38486.55233990700799, 4327485.700208802707493 ], [ 50324.279347328199947, 4331163.696780026890337 ], [ 72779.711862520838622, 4345715.336951046250761 ], [ 73647.104941384473932, 4346277.822139450348914 ], [ 83791.099885144518339, 4346661.812394736334682 ], [ 89628.519544710390619, 4351043.266168634407222 ], [ 97127.419673731710645, 4352254.131164257414639 ], [ 101493.997944570204709, 4355793.254446133039892 ], [ 104524.037434889207361, 4361996.723930370993912 ], [ 104833.589013578821323, 4362630.677762839943171 ], [ 131893.246830520394724, 4371636.154708703048527 ], [ 142337.661892979755066, 4370708.2457618676126 ], [ 142952.815531670028577, 4370653.596420189365745 ], [ 150878.256772468565032, 4376926.981094426475465 ], [ 165809.344150265969802, 4373496.400281745940447 ], [ 167673.778601077530766, 4373764.129163360223174 ], [ 211629.982980249187676, 4380078.087442861869931 ], [ 212882.992286435706774, 4380258.126829613000154 ], [ 222521.743906353483908, 4378765.807587175630033 ], [ 240658.054579570482019, 4383807.763825108297169 ], [ 261440.726826999307377, 4389588.341188410297036 ], [ 265916.804266854422167, 4388593.022648496553302 ], [ 267341.613735764170997, 4388276.21574516966939 ], [ 270156.952008096443024, 4382785.089848354458809 ], [ 284835.941148216370493, 4382555.795944064855576 ], [ 289658.062327123538125, 4384987.973236915655434 ], [ 290519.232386149233207, 4385422.387653080746531 ], [ 305449.312993069877848, 4392956.625431532040238 ], [ 308977.018321647890843, 4394737.604472933337092 ], [ 311964.12699525617063, 4397878.217720243148506 ], [ 316355.145820057019591, 4402496.565422576852143 ], [ 316146.305668586515822, 4406187.658560165204108 ], [ 319857.665770754800178, 4406705.280806645750999 ], [ 320474.053585964895319, 4406791.250659534707665 ], [ 322897.638866647321265, 4412038.307904714718461 ], [ 334839.169295475468971, 4413862.123149717226624 ], [ 337186.507662844611332, 4412264.717944962903857 ], [ 340811.619395370129496, 4409798.236203390173614 ], [ 341472.149726000847295, 4409348.880957974120975 ], [ 342445.493623678805307, 4404802.978824965655804 ], [ 348633.169819628470577, 4403064.161819408647716 ], [ 349374.010294981359039, 4403315.765077281743288 ], [ 358539.812684693722986, 4406429.134041061624885 ], [ 358592.143637723871507, 4406827.693552572280169 ], [ 359445.905138405214529, 4413332.162105028517544 ], [ 371298.335505728085991, 4409755.821555810980499 ], [ 373194.728171651833691, 4409183.717368004843593 ], [ 380305.246544767054729, 4407038.888052919879556 ], [ 380632.436455917893909, 4406940.204301359131932 ], [ 389467.46035042864969, 4407028.499102196656168 ], [ 394802.186224506527651, 4409698.312509538605809 ], [ 397225.76885525858961, 4410911.438188046216965 ], [ 407247.5845469905762, 4415929.332010200247169 ], [ 410029.823839674354531, 4417322.810821336694062 ], [ 415086.986263943603262, 4422934.71589744463563 ], [ 429973.884074056171812, 4427408.763597032055259 ], [ 433357.52901227644179, 4428425.933402520604432 ], [ 439250.584865434211679, 4425227.551945225335658 ], [ 439917.454357179056387, 4424865.677626637741923 ], [ 457282.338686517847236, 4423804.836956722661853 ], [ 462900.502363796695136, 4426279.368168413639069 ], [ 463218.25151789636584, 4426149.170012450776994 ], [ 467981.977632789697964, 4424197.41792406514287 ], [ 477867.686533654225059, 4426285.829587739892304 ], [ 489867.751422405592166, 4423907.665474719367921 ], [ 492001.264948302356061, 4425397.665343076921999 ], [ 493717.919354701356497, 4426596.691538983955979 ], [ 502558.674087906605564, 4422949.922709858976305 ], [ 522180.583034227543976, 4422426.389866336248815 ], [ 523781.414296198112424, 4422383.679168922826648 ], [ 529693.803959258715622, 4424515.916971731930971 ], [ 548021.691941404016688, 4418192.36457110196352 ], [ 558351.289315567235462, 4410720.609381951391697 ], [ 561292.252014612196945, 4409936.226184375584126 ], [ 568391.598168631782755, 4408042.999898458831012 ], [ 565178.294275206630118, 4401478.51315448153764 ], [ 568142.448116353480145, 4396717.10426065325737 ], [ 587977.004184983670712, 4388616.602826214395463 ], [ 588513.894337425008416, 4388397.420381803996861 ], [ 604245.041797357378528, 4390932.287173954769969 ], [ 612450.784180135582574, 4394518.109806369058788 ], [ 617744.060142457834445, 4398837.959564805962145 ], [ 618792.872096390346996, 4401955.707491734065115 ], [ 620274.850545546039939, 4406362.661191213876009 ], [ 631740.288885588874109, 4410888.034564853645861 ], [ 633379.980791146284901, 4413701.333706803619862 ], [ 642063.263195314677432, 4415176.691114904358983 ], [ 642204.172306274296716, 4415099.352418556809425 ], [ 647528.262719200807624, 4412177.60950196813792 ], [ 659115.757647181977518, 4414378.299815558828413 ], [ 661789.767033420153894, 4414886.210754086263478 ], [ 674749.680373248178512, 4419903.209846204146743 ], [ 691610.976995627162978, 4426434.045563384890556 ], [ 693044.843118636985309, 4427598.481456839479506 ], [ 696886.979178592329845, 4430719.291689286008477 ], [ 694712.63801516930107, 4437270.239157577045262 ], [ 697381.833388311439194, 4442766.348031315021217 ], [ 697433.731596860103309, 4442799.361202145926654 ], [ 708463.537079640198499, 4449817.910305372439325 ], [ 720200.143354053492658, 4451464.540802803821862 ], [ 724741.562132196500897, 4449626.729413708671927 ], [ 726065.883248657919466, 4446640.20989724714309 ], [ 728993.993285850505345, 4446589.573848239146173 ], [ 728214.325487276073545, 4443626.342923653312027 ], [ 732628.217102055437863, 4440931.623303575441241 ], [ 730781.475507727940567, 4437708.164793886244297 ], [ 733287.728868667618372, 4435158.853535335510969 ], [ 747988.136101446812972, 4431578.64246591180563 ], [ 751709.172199892811477, 4433626.888303460553288 ], [ 752858.266175130498596, 4432260.271102961152792 ], [ 753440.972969088470563, 4431567.325306445360184 ], [ 755528.605933988234028, 4433422.764970880001783 ], [ 761529.314143336610869, 4432966.767104954458773 ], [ 762314.796826837118715, 4430160.135801232419908 ], [ 766048.202301818761043, 4429442.30967522226274 ], [ 766133.633220509043895, 4424616.539698164910078 ], [ 771635.426619081175886, 4422622.369939448311925 ], [ 789107.530542364809662, 4428058.503037309274077 ], [ 794251.513820486725308, 4426434.811555753462017 ], [ 797434.649620317504741, 4428508.226784080266953 ], [ 801937.188128887908533, 4431441.759690013714135 ], [ 807530.277313511469401, 4438532.49476816598326 ], [ 807721.646093533490784, 4441744.576846273615956 ], [ 801660.980706215137616, 4447007.031921467743814 ], [ 798052.479651032830589, 4450141.524063219316304 ], [ 802590.276760879904032, 4451477.340326889418066 ], [ 802672.986196156125516, 4451441.415052383206785 ], [ 809459.043672766303644, 4448494.271189006976783 ], [ 811919.923654517391697, 4450435.418908500112593 ], [ 813029.429965662304312, 4450083.938304541632533 ], [ 818219.875575682730414, 4448439.811645809561014 ], [ 821916.863769813324325, 4450780.715674676001072 ], [ 823036.16265938768629, 4449655.986169517971575 ], [ 821837.759026460931636, 4447825.94359365105629 ], [ 824709.53839568910189, 4444735.386041145771742 ], [ 836666.069682521861978, 4444747.958753402344882 ], [ 841357.191802433109842, 4438192.623320678249002 ], [ 844194.514491655863822, 4436517.108621983788908 ], [ 848587.363007157575339, 4433923.536616316996515 ], [ 852739.90885152714327, 4436024.591056237928569 ], [ 858153.092380690621212, 4432109.587649532593787 ], [ 860012.946236835210584, 4432627.911464978009462 ], [ 867446.401809549308382, 4434699.798688964918256 ], [ 863982.281633686739951, 4429131.900817822664976 ], [ 865780.404329097596928, 4425403.971292885951698 ], [ 864287.651479737600312, 4422064.408208050765097 ], [ 873533.293902633711696, 4417214.828333209268749 ], [ 879861.19860002596397, 4418089.985546009615064 ], [ 889597.375918288598768, 4419436.651828406378627 ], [ 915754.369365210877731, 4432379.53187155071646 ], [ 916535.688749812310562, 4431594.730326536111534 ], [ 920391.921874497435056, 4427722.160666284151375 ], [ 922895.103445710148662, 4427843.128116387873888 ], [ 930667.598536354489625, 4428218.746453261934221 ], [ 938469.681306061451323, 4424539.171008986420929 ], [ 962422.695888334652409, 4430312.940693035721779 ], [ 963748.945948927430436, 4427491.355139590799809 ], [ 961474.94423026801087, 4425983.562247453257442 ], [ 960519.269184786360711, 4418993.895319662056863 ], [ 964720.563058676780201, 4418621.871868947520852 ], [ 966598.872634206549264, 4416850.792888773605227 ], [ 965758.885812948807143, 4414297.147736568935215 ], [ 959345.760486182989553, 4410280.637334644794464 ], [ 957740.146148440078832, 4411153.375251389108598 ], [ 954672.968901535030454, 4407646.1362523753196 ], [ 944760.501800723141059, 4408453.316695387475193 ], [ 938618.46804314176552, 4405626.730158844031394 ], [ 942905.398331524804235, 4403273.2912607928738 ], [ 944918.033796989824623, 4396973.047992622479796 ], [ 941012.645608663908206, 4392037.030631476081908 ], [ 940536.015735429944471, 4386347.06322412006557 ], [ 938169.886924238060601, 4386066.305662076920271 ], [ 935775.541461421409622, 4385782.207502896897495 ], [ 934338.312992944614962, 4382882.014125002548099 ], [ 926904.599665284971707, 4379807.582957440055907 ], [ 922992.533754660282284, 4375147.100992038846016 ], [ 920856.703800886287354, 4374299.197012492455542 ], [ 907575.692312872270122, 4369028.267983936704695 ], [ 909411.030338552547619, 4364493.266648298129439 ], [ 914026.340656991349533, 4362319.131530391983688 ], [ 924930.294840074144304, 4361576.394133716821671 ], [ 925872.168940346338786, 4359457.736860297620296 ], [ 925921.72205238614697, 4359487.584308980964124 ], [ 930142.344866115716286, 4362030.10696486569941 ], [ 936163.777870358084328, 4357395.429601073265076 ], [ 932408.808808118337765, 4349321.515683454461396 ], [ 933034.394465382094495, 4346305.373568403534591 ], [ 933810.645470887655392, 4342564.001527138054371 ], [ 928168.783209825167432, 4337130.085613180883229 ], [ 928569.401242398424074, 4336172.931249058805406 ], [ 929956.241831973311491, 4332860.155274648219347 ], [ 924959.489712372538634, 4324549.456904669292271 ], [ 928803.906991061056033, 4314661.662748905830085 ], [ 923793.294147715554573, 4306555.89992508944124 ], [ 923127.548823570483364, 4294193.818715429864824 ], [ 920190.485025769216008, 4292404.079224853776395 ], [ 919351.028975849505514, 4288537.633015725761652 ], [ 920911.29965672257822, 4287249.891882100142539 ], [ 919752.21707357710693, 4285687.317276027053595 ], [ 921347.89781655697152, 4285591.303936901502311 ], [ 919662.934389187954366, 4268113.842761372216046 ], [ 920182.493844818207435, 4263573.758422212675214 ], [ 928746.785937016364187, 4256622.099793432280421 ], [ 930394.215455431141891, 4255285.383693599142134 ], [ 930872.636904561426491, 4235510.320605714805424 ], [ 933812.914718704181723, 4230182.73368810955435 ], [ 925931.5139174843207, 4220435.133080567233264 ], [ 927432.446189082111232, 4219150.839803505688906 ], [ 926858.020028342143632, 4215417.021656354889274 ], [ 925511.428779584355652, 4206669.02175963204354 ], [ 927869.723286492866464, 4202113.265195291489363 ], [ 935985.318700364674442, 4197512.069259153679013 ], [ 943697.071714551653713, 4196686.441254466772079 ], [ 942708.299221714260057, 4194877.554197651334107 ], [ 935325.999961751862429, 4181381.514631562866271 ], [ 930542.789794941898435, 4177396.846996074542403 ], [ 925960.60225703031756, 4165179.81726243160665 ], [ 925919.760805662721395, 4157152.224839013535529 ], [ 918352.145492660580203, 4153022.808847332838923 ], [ 920453.355007062666118, 4147099.008685878012329 ], [ 921129.888389970175922, 4145192.372638849075884 ], [ 922168.264020972885191, 4133173.961237750947475 ], [ 926129.459230379317887, 4127680.831310409121215 ], [ 923684.265278072678484, 4127491.24736563116312 ], [ 920408.460722559131682, 4121998.115657813381404 ], [ 917426.00128169124946, 4120858.775112398900092 ], [ 922036.516513076028787, 4116832.890901776496321 ], [ 917852.35359559673816, 4113779.744834593031555 ], [ 918399.97613827791065, 4111597.633679469116032 ], [ 914475.18251365039032, 4109972.505922394338995 ], [ 913767.224282018025406, 4107946.948513763491064 ], [ 915228.445551662705839, 4106732.658173699397594 ], [ 909885.962478241184726, 4106066.463838579133153 ], [ 907134.622337770531885, 4100623.497662678360939 ], [ 895588.455436955555342, 4095128.119764768518507 ], [ 891874.491577062872238, 4090474.520563875325024 ], [ 885528.227630786015652, 4088927.524052665103227 ], [ 881641.603901097550988, 4084759.439990079961717 ], [ 874614.782459250302054, 4083477.030604201368988 ], [ 870056.789433423313312, 4057429.631761727854609 ], [ 861395.996349372086115, 4051256.849627686664462 ], [ 857429.812643186422065, 4053099.538654086645693 ], [ 852842.905095300171524, 4055230.989024330861866 ], [ 847425.032677867333405, 4043952.054552092216909 ], [ 838444.292237831396051, 4038159.014335921499878 ], [ 841953.813622714136727, 4031796.348793370649219 ], [ 840169.380441703600809, 4026294.981745978817344 ], [ 840827.375925532658584, 4021186.310270199552178 ], [ 838253.783623508177698, 4017110.433000918012112 ], [ 840892.984293815097772, 4007258.379840036854148 ], [ 838425.023835848085582, 4002522.0602683625184 ], [ 845526.581064997124486, 3996383.244555059354752 ], [ 846218.044197120820172, 3982307.095202047377825 ], [ 849735.156012824038044, 3973390.640961106866598 ], [ 863100.276602715952322, 3952562.301817982923239 ], [ 866980.066206236020662, 3933233.682955209165812 ], [ 871881.378337757196277, 3920586.878639469388872 ], [ 879957.189278804464266, 3919823.088056683074683 ], [ 903154.978037818451412, 3908861.400287210009992 ], [ 903458.39055324497167, 3902052.346164345275611 ], [ 917456.841828270582482, 3886010.273945747409016 ], [ 918150.436801737756468, 3885215.992302324157208 ], [ 926545.982589849969372, 3871836.949913234915584 ], [ 930355.41304317151662, 3829406.305440932512283 ], [ 1009851.249485484324396, 3774756.439975755754858 ], [ 1027406.183303977129981, 3696055.707808242645115 ], [ 1062867.31088281236589, 3538601.230221107136458 ], [ 1064103.969840525882319, 3533145.829080330207944 ], [ 1052425.427136270329356, 3528747.514227085281163 ], [ 1046354.336296650348231, 3526461.652691907715052 ], [ 1045507.902295744745061, 3522301.145217552781105 ], [ 1046010.93547474744264, 3519414.64515487710014 ], [ 1047313.620987917063758, 3511942.632585391402245 ], [ 1061912.456421129638329, 3490779.589080085512251 ], [ 1088768.181495035532862, 3429739.765453856438398 ], [ 1098975.815787910949439, 3379084.733296431601048 ], [ 1101910.326253611594439, 3349724.395153952762485 ], [ 1102372.804856182541698, 3345103.153370704967529 ], [ 1095912.179589414736256, 3294693.868145173881203 ], [ 1094665.222092755604535, 3284986.259719899389893 ], [ 1105994.102986889658496, 3244793.480166602414101 ], [ 1109049.651733914623037, 3233973.316123256459832 ], [ 1106962.105264255777001, 3229294.486630411352962 ], [ 1106844.689472880912945, 3215192.687606875784695 ], [ 1104759.939460152527317, 3208449.23911883495748 ], [ 1100763.646217168774456, 3199557.562762619461864 ], [ 1092812.018847260158509, 3195016.708049376495183 ], [ 1099680.204226138768718, 3193822.240815820172429 ], [ 1097890.410121081396937, 3186493.993117487989366 ], [ 1092495.229959183838218, 3181330.722976364195347 ], [ 1089209.393068525241688, 3167632.688807162456214 ], [ 1090404.252511499682441, 3167759.626396004110575 ], [ 1088993.458414598368108, 3156647.298115462064743 ], [ 1090748.033370481338352, 3145370.735085329972208 ], [ 1092987.414170924341306, 3141942.723542395513505 ], [ 1097515.125400935532525, 3117406.824523927643895 ], [ 1104786.219097620574757, 3106122.34391628485173 ], [ 1102364.948705750517547, 3091332.480443173553795 ], [ 1103613.207885812269524, 3079323.995781885460019 ], [ 1098043.815058561740443, 3063519.214873968157917 ], [ 1070538.814972865395248, 3051714.635288250166923 ], [ 1058980.140844885492697, 3046756.792202774435282 ], [ 1052716.126417583785951, 3030449.528864255640656 ], [ 1046357.945719799026847, 3023231.308072361163795 ], [ 1074739.986475320998579, 2981516.182822367176414 ], [ 1116831.930432262830436, 2919868.476451985072345 ], [ 1116934.961073755286634, 2872838.842364046722651 ], [ 1130304.699752728687599, 2849142.68841762188822 ], [ 1137344.231654056813568, 2832782.870135704986751 ], [ 1146939.308073629857972, 2826468.206369925756007 ], [ 1152981.088833626359701, 2818971.384682302828878 ], [ 1173788.716656985925511, 2818494.277862540911883 ], [ 1178713.384508246555924, 2819402.796859992668033 ], [ 1181687.156464733881876, 2823346.404004076030105 ], [ 1191855.085989564424381, 2823283.367312374990433 ], [ 1198634.041783427353948, 2815633.931822669226676 ], [ 1202204.003195297205821, 2817660.661024451255798 ], [ 1201538.808123410213739, 2819756.299419158603996 ], [ 1205287.832056923769414, 2822876.320678727701306 ], [ 1213245.11779652023688, 2821121.415818085893989 ], [ 1219367.684780788840726, 2818008.700624015647918 ], [ 1230323.901015765266493, 2805184.817706400994211 ], [ 1239832.166934190317988, 2801130.23198272055015 ], [ 1271605.447100494289771, 2777743.143827209249139 ], [ 1291685.887697332771495, 2785580.402951079886407 ], [ 1334427.607423977460712, 2696494.268292410299182 ], [ 1101052.643133289413527, 2549090.666400397196412 ], [ 1059319.648705202154815, 2522869.096909608691931 ], [ 828849.215929563972168, 2373104.720237371046096 ], [ 797122.700190787785687, 2346551.268597593531013 ], [ 718175.878827715176158, 2272516.467503879219294 ], [ 647554.598239038139582, 2206537.552975235506892 ], [ 371278.22780720051378, 2150254.298449753317982 ], [ 354580.17540798994014, 2163304.085366932675242 ], [ 348132.233112941728905, 2168345.585327486041933 ], [ 345896.26414356532041, 2173671.801572114694864 ], [ 346685.847948425624054, 2176993.812497783452272 ], [ 351709.769763004558627, 2182499.728995721321553 ], [ 355563.628546150168404, 2186724.387991338502616 ], [ 357335.224586141936015, 2194459.137258561328053 ], [ 364153.500539220636711, 2201668.223670702893287 ], [ 360081.808823996863794, 2211405.19183538062498 ], [ 361678.466840803972445, 2216045.344036930706352 ], [ 357408.689104856399354, 2223105.566956548485905 ], [ 359888.510877210239414, 2230701.177358768414706 ], [ 357590.160691586672328, 2235154.312022547703236 ], [ 359550.598002553277183, 2252338.995905004907399 ], [ 352578.32010556361638, 2253860.402449260000139 ], [ 339958.347509092127439, 2261287.300611845217645 ], [ 329955.534253794816323, 2267176.082928832154721 ], [ 312954.824402843194548, 2269523.018878855276853 ] ], [ [ -404932.495895949832629, 3653398.884882804006338 ], [ -405029.594655747583602, 3654399.779103925451636 ], [ -405004.639942857204005, 3652347.459698089864105 ], [ -404932.495895949832629, 3653398.884882804006338 ] ] ] } }
]
}
